{
  "norad_id": 44071,
  "name": "WGS 10 (USA 291)",
  "history": [
    {
      "epoch": "2026-03-26T15:43:10.494048",
      "apogee_km": 35788.93612401947,
      "perigee_km": 35784.120919216904,
      "latitude_deg": -0.009140546091253709,
      "longitude_deg": -102.02167327981442,
      "semi_major_axis_km": 42164.66552161819,
      "eccentricity": 5.71e-05,
      "inclination_deg": 0.0193,
      "raan_deg": 139.3523,
      "arg_perigee_deg": 180.4249,
      "mean_anomaly_deg": 160.4005,
      "mean_motion_rev_day": 1.00272022
    }
  ]
}