{"fetched_at":"2026-03-29T02:12:04Z","count":15717,"tles":[{"name":"WGS 10 (USA 291)","line1":"1 44071U 19014A   26085.65498257  .00000030  00000+0  00000+0 0  9999","line2":"2 44071   0.0193 139.3523 0000571 180.4249 160.4005  1.00272022 25793","category":"Military"}]}